1 45579U 20025BA  22365.00620224  .00004558  00000-0  32458-3 0  9990
2 45579  53.0536 225.2452 0001477  95.1867 264.9291 15.06408902149935
1 45579U 20025BA  22365.40428119  .00007670  00000-0  53302-3 0  9992
2 45579  53.0534 223.4593 0001543  95.5347 264.5818 15.06415490150584
1 45579U 20025BA  22365.86870889  .00002548  00000-0  18983-3 0  9992
2 45579  53.0534 221.3744 0001493  96.6007 263.5151 15.06407529150659
1 45579U 20025BA  23001.00140124  .00002247  00000-0  16968-3 0  9995
2 45579  53.0533 220.7785 0001479  97.1416 262.9741 15.06408581150084
1 45579U 20025BA  23001.33313813  .00000381  00000-0  44445-4 0  9997
2 45579  53.0534 219.2894 0001420  93.3179 266.7972 15.06401329150136
1 45579U 20025BA  23001.59852590 -.00001376  00000-0 -73492-4 0  9996
2 45579  53.0532 218.0971 0001471  97.3170 262.7986 15.06397394150764
1 45579U 20025BA  23001.86391385  .00000185  00000-0  31339-4 0  9995
2 45579  53.0533 216.9058 0001443  99.9875 260.1277 15.06398400150806
1 45579U 20025BA  23002.59372968  .00000334  00000-0  41339-4 0  9999
2 45579  53.0536 213.6304 0001347  96.4553 263.6589 15.06398057150919
1 45579U 20025BA  23002.59372968  .00000334  00000-0  41339-4 0  9999
2 45579  53.0536 213.6304 0001347  96.4553 263.6589 15.06398057150324
1 45579U 20025BA  23002.85912062 -.00000521  00000-0 -16111-4 0  9993
2 45579  53.0535 212.4390 0001355  96.6508 263.4635 15.06393244150958
1 45579U 20025BA  23002.99181683 -.00001159  00000-0 -58935-4 0  9993
2 45579  53.0533 211.8434 0001412  95.4263 264.6887 15.06388494150387
1 45579U 20025BA  23003.58894287  .00000313  00000-0  39947-4 0  9991
2 45579  53.0533 209.1630 0001371  95.2306 264.8839 15.06388269151060
1 45579U 20025BA  23004.25241274  .00001015  00000-0  87031-4 0  9995
2 45579  53.0543 206.1843 0001340  95.1810 264.9331 15.06394494151165
1 45579U 20025BA  23004.25241274  .00001015  00000-0  87031-4 0  9995
2 45579  53.0543 206.1843 0001340  95.1810 264.9331 15.06394494150579
1 45579U 20025BA  23004.84953537  .00002733  00000-0  20235-3 0  9992
2 45579  53.0544 203.5038 0001392  97.8937 262.2210 15.06393930151250
1 45579U 20025BA  23005.51300277  .00002858  00000-0  21065-3 0  9994
2 45579  53.0535 200.5253 0001431  97.0560 263.0592 15.06400084150760
1 45579U 20025BA  23005.57934882  .00002797  00000-0  20656-3 0  9992
2 45579  53.0535 200.2275 0001430  97.3858 262.7293 15.06401753151368
1 45579U 20025BA  23006.90628687 -.00000125  00000-0  10529-4 0  9996
2 45579  53.0532 194.2706 0001438  95.2260 264.8893 15.06396723151569
1 45579U 20025BA  23006.90628687 -.00000125  00000-0  10529-4 0  9996
2 45579  53.0532 194.2706 0001438  95.2260 264.8893 15.06396723150973
1 45579U 20025BA  23007.23802060  .00000197  00000-0  32121-4 0  9992
2 45579  53.0532 192.7815 0001443  95.0546 265.0608 15.06398354151619
1 45579U 20025BA  23007.90148434  .00000457  00000-0  49558-4 0  9995
2 45579  53.0541 189.8026 0001333 100.3772 259.7367 15.06404936151716
1 45579U 20025BA  23007.90148434  .00000457  00000-0  49558-4 0  9995
2 45579  53.0541 189.8026 0001333 100.3772 259.7367 15.06404936151121
1 45579U 20025BA  23008.49860215  .00002388  00000-0  17915-3 0  9994
2 45579  53.0543 187.1223 0001277  98.2621 261.8513 15.06403324151800
1 45579U 20025BA  23008.76398952  .00003678  00000-0  26562-3 0  9999
2 45579  53.0531 185.9308 0001294  97.6687 262.4449 15.06408234151845
1 45579U 20025BA  23009.56016544 -.00000920  00000-0 -42916-4 0  9993
2 45579  53.0542 182.3566 0001251  99.4156 260.6974 15.06388269151374
1 45579U 20025BA  23009.75920278 -.00000362  00000-0 -54383-5 0  9994
2 45579  53.0544 181.4635 0001174  96.7376 263.3747 15.06392496151994
1 45579U 20025BA  23010.48902002 -.00000913  00000-0 -42402-4 0  9991
2 45579  53.0544 178.1875 0001161  94.3933 265.7189 15.06393625151511
1 45579U 20025BA  23010.55536696 -.00000954  00000-0 -45158-4 0  9997
2 45579  53.0544 177.8897 0001161  94.3439 265.7683 15.06393364152118
1 45579U 20025BA  23010.75440655 -.00000904  00000-0 -41834-4 0  9990
2 45579  53.0547 176.9964 0001116  94.9555 265.1561 15.06395206152140
1 45579U 20025BA  23011.15248934  .00000236  00000-0  34744-4 0  9999
2 45579  53.0547 175.2090 0000992  91.8542 268.2560 15.06392080152202
1 45579U 20025BA  23011.81596117  .00001136  00000-0  95160-4 0  9990
2 45579  53.0547 172.2309 0000998  93.0208 267.0895 15.06389770152302
1 45579U 20025BA  23012.14769546  .00001319  00000-0  10744-3 0  9992
2 45579  53.0549 170.7417 0001004  90.1100 270.0004 15.06391920151760
1 45579U 20025BA  23012.81116019  .00001583  00000-0  12513-3 0  9996
2 45579  53.0551 167.7638 0001075  89.4312 270.6800 15.06399228152454
1 45579U 20025BA  23013.40828908  .00002756  00000-0  20388-3 0  9991
2 45579  53.0526 165.0833 0001052  92.4303 267.6807 15.06385747152547
1 45579U 20025BA  23013.40828908  .00002756  00000-0  20388-3 0  9991
2 45579  53.0526 165.0833 0001052  92.4303 267.6807 15.06385747151951
1 45579U 20025BA  23013.67367733  .00002811  00000-0  20758-3 0  9997
2 45579  53.0525 163.8918 0000973  92.2335 267.8766 15.06386142152580
1 45579U 20025BA  23014.13810141  .00000450  00000-0  49123-4 0  9990
2 45579  53.0516 161.8066 0001090  85.7167 274.3947 15.06397230152060
1 45579U 20025BA  23014.40348364 -.00002016  00000-0 -11648-3 0  9995
2 45579  53.0517 160.6132 0000941  87.8447 272.2650 15.06410725152108
1 45579U 20025BA  23014.80156841  .00000624  00000-0  60749-4 0  9994
2 45579  53.0517 158.8287 0001229  76.8783 283.2343 15.06397985152168
1 45579U 20025BA  23015.39869578 -.00000719  00000-0 -29363-4 0  9991
2 45579  53.0514 156.1468 0001385  81.6665 278.4481 15.06395801152257
1 45579U 20025BA  23015.59773511  .00000006  00000-0  19291-4 0  9990
2 45579  53.0530 155.2532 0001181  88.7305 271.3819 15.06394525152877
1 45579U 20025BA  23015.79676733  .00001093  00000-0  92240-4 0  9992
2 45579  53.0548 154.3594 0000987  93.0383 267.0719 15.06404665152904
1 45579U 20025BA  23015.79676733  .00001093  00000-0  92240-4 0  9992
2 45579  53.0548 154.3594 0000987  93.0383 267.0719 15.06404665152319
1 45579U 20025BA  23016.39389860  .00001087  00000-0  91880-4 0  9993
2 45579  53.0568 151.6762 0001041 104.5106 255.5998 15.06389755152404
1 45579U 20025BA  23016.59293318  .00001621  00000-0  12772-3 0  9993
2 45579  53.0551 150.7829 0001164 103.0693 257.0426 15.06399243153026
1 45579U 20025BA  23016.65927845  .00000804  00000-0  72859-4 0  9994
2 45579  53.0550 150.4861 0001186  83.5725 276.5399 15.06404925153030
1 45579U 20025BA  23016.65927845  .00000804  00000-0  72859-4 0  9994
2 45579  53.0550 150.4861 0001186  83.5725 276.5399 15.06404925152444
1 45579U 20025BA  23017.05736806  .00000064  00000-0  23226-4 0  9996
2 45579  53.0561 148.7001 0001356  90.1403 269.9741 15.06394293152508
1 45579U 20025BA  23017.38911248 -.00001077  00000-0 -53425-4 0  9998
2 45579  53.0565 147.2141 0001352 105.7537 254.3602 15.06389146153144
1 45579U 20025BA  23017.38911248 -.00001077  00000-0 -53425-4 0  9998
2 45579  53.0565 147.2141 0001352 105.7537 254.3602 15.06389146152558
1 45579U 20025BA  23017.65449857 -.00000747  00000-0 -31287-4 0  9995
2 45579  53.0572 146.0237 0001338 107.3464 252.7672 15.06389630153187
1 45579U 20025BA  23018.31796057  .00001743  00000-0  13592-3 0  9999
2 45579  53.0569 143.0441 0001205 108.9535 251.1585 15.06395270152694
1 45579U 20025BA  23018.58334356  .00001158  00000-0  96614-4 0  9995
2 45579  53.0567 141.8546 0001361  88.0850 272.0295 15.06406176153324
1 45579U 20025BA  23018.64968012  .00002378  00000-0  17841-3 0  9993
2 45579  53.0554 141.5510 0001005 104.5083 255.6018 15.06416837153331
1 45579U 20025BA  23018.64968012  .00002378  00000-0  17841-3 0  9993
2 45579  53.0554 141.5510 0001005 104.5083 255.6018 15.06416837152745
1 45579U 20025BA  23019.37951500  .00001949  00000-0  14975-3 0  9996
2 45579  53.0559 138.2787 0001224 114.1768 245.9349 15.06390556152859
1 45579U 20025BA  23019.57855385  .00002266  00000-0  17102-3 0  9990
2 45579  53.0565 137.3852 0001278 114.4951 245.6172 15.06394207153472
1 45579U 20025BA  23020.50740494  .00000320  00000-0  40382-4 0  9995
2 45579  53.0547 133.2150 0001409  73.6492 286.4651 15.06407964153616
1 45579U 20025BA  23020.50740494  .00000320  00000-0  40382-4 0  9995
2 45579  53.0547 133.2150 0001409  73.6492 286.4651 15.06407964153021
1 45579U 20025BA  23021.43626446  .00000663  00000-0  63415-4 0  9990
2 45579  53.0558 129.0448 0001306 106.3719 253.7414 15.06396764153162
1 45579U 20025BA  23021.56895389  .00001439  00000-0  11545-3 0  9996
2 45579  53.0557 128.4494 0001446  98.4208 261.6944 15.06402543153185
1 45579U 20025BA  23022.29877606  .00000781  00000-0  71331-4 0  9998
2 45579  53.0558 125.1740 0001346  85.6226 274.4917 15.06393072153291
1 45579U 20025BA  23022.69684761  .00000801  00000-0  72615-4 0  9999
2 45579  53.0557 123.3857 0001344  93.9803 266.1339 15.06406814153352
1 45579U 20025BA  23023.29398306 -.00000017  00000-0  17778-4 0  9992
2 45579  53.0542 120.7046 0001513  99.1020 261.0140 15.06390306153446
1 45579U 20025BA  23023.55936347  .00001130  00000-0  94772-4 0  9999
2 45579  53.0560 119.5144 0001241  91.8972 268.2159 15.06399465153482
1 45579U 20025BA  23024.48822542  .00000521  00000-0  53846-4 0  9993
2 45579  53.0566 115.3457 0001360  98.2258 261.8885 15.06394350153628
1 45579U 20025BA  23025.54977505  .00000725  00000-0  67583-4 0  9990
2 45579  53.0560 110.5789 0001341 101.8935 258.2204 15.06398248154377
1 45579U 20025BA  23025.54977505  .00000725  00000-0  67583-4 0  9990
2 45579  53.0560 110.5789 0001341 101.8935 258.2204 15.06398248153781
1 45579U 20025BA  23026.47863055  .00001421  00000-0  11427-3 0  9996
2 45579  53.0562 106.4101 0001349  81.6213 278.4929 15.06400397154516
1 45579U 20025BA  23026.94305453  .00000545  00000-0  55506-4 0  9994
2 45579  53.0560 104.3247 0001481  69.9928 290.1220 15.06407040153999
1 45579U 20025BA  23027.47383286  .00001031  00000-0  88095-4 0  9993
2 45579  53.0561 101.9436 0000997  60.4720 299.6369 15.06398872154665
1 45579U 20025BA  23027.47383286  .00001031  00000-0  88095-4 0  9993
2 45579  53.0561 101.9436 0000997  60.4720 299.6369 15.06398872154070
1 45579U 20025BA  23028.40269551  .00001419  00000-0  11416-3 0  9997
2 45579  53.0556  97.7724 0001372  89.2202 270.8944 15.06386863154211
1 45579U 20025BA  23028.53538588 -.00000509  00000-0 -15292-4 0  9998
2 45579  53.0556  97.1766 0001422  91.0751 269.0400 15.06396461154826
1 45579U 20025BA  23028.60173118 -.00000466  00000-0 -12406-4 0  9996
2 45579  53.0542  96.8774 0001295  88.1069 272.0069 15.06398090154839
1 45579U 20025BA  23028.60173118 -.00000466  00000-0 -12406-4 0  9996
2 45579  53.0542  96.8774 0001295  88.1069 272.0069 15.06398090154244
1 45579U 20025BA  23029.86232374  .00000573  00000-0  57364-4 0  9994
2 45579  53.0557  91.2173 0001280  77.4182 282.6950 15.06393072155021
1 45579U 20025BA  23030.12771748 -.00000346  00000-0 -43450-5 0  9990
2 45579  53.0565  90.0271 0001413  82.4160 277.6989 15.06388514154475
1 45579U 20025BA  23030.59213941  .00000555  00000-0  56149-4 0  9995
2 45579  53.0555  87.9426 0001339  84.7730 275.3412 15.06396564155130
1 45579U 20025BA  23030.59213941  .00000555  00000-0  56149-4 0  9995
2 45579  53.0555  87.9426 0001339  84.7730 275.3412 15.06396564154544
1 45579U 20025BA  23030.85752928  .00000187  00000-0  31485-4 0  9994
2 45579  53.0545  86.7510 0001357  84.9937 275.1207 15.06394018155177
1 45579U 20025BA  23031.52099243  .00000633  00000-0  61372-4 0  9997
2 45579  53.0553  83.7725 0001391  89.3869 270.7279 15.06402547155270
1 45579U 20025BA  23031.85272712  .00000170  00000-0  30278-4 0  9994
2 45579  53.0557  82.2835 0001330  84.9409 275.1732 15.06402160155324
